{
  "type": "FeatureCollection",
  "features": [
    {
      "type": "Feature",
      "properties": {
        "norad_id": 30326,
        "name": "FENGYUN 1C DEB",
        "group": "fengyun-1c-debris",
        "lat": 65.80677411218286,
        "lon": -132.29458697949224,
        "alt_km": 912.2173588643718,
        "timestamp": "2025-12-27T07:26:25.497356+00:00",
        "meta_object_name": "FENGYUN 1C DEB",
        "meta_object_id": "1999-025AAM",
        "meta_epoch": "2025-12-26T15:31:28.194240",
        "meta_mean_motion": 13.85482013,
        "meta_eccentricity": 0.014182,
        "meta_inclination": 98.6537,
        "meta_ra_of_asc_node": 246.9067,
        "meta_arg_of_pericenter": 352.7825,
        "meta_mean_anomaly": 7.1289,
        "meta_ephemeris_type": 0,
        "meta_classification_type": "U",
        "meta_norad_cat_id": 30326,
        "meta_element_set_no": 999,
        "meta_rev_at_epoch": 95648,
        "meta_bstar": 0.00021574,
        "meta_mean_motion_dot": 2.26e-06,
        "meta_mean_motion_ddot": 0,
        "tle_line1": "1 30326U 99025AAM 25360.64685410  .00000226  00000+0  21574-3 0  9990",
        "tle_line2": "2 30326  98.6537 246.9067 0141820 352.7825   7.1289 13.85482013956480"
      },
      "geometry": {
        "type": "Point",
        "coordinates": [
          -132.29458697949224,
          65.80677411218286
        ]
      }
    },
    {
      "type": "Feature",
      "properties": {
        "norad_id": 30327,
        "name": "FENGYUN 1C DEB",
        "group": "fengyun-1c-debris",
        "lat": -23.485691167956524,
        "lon": 71.21439479844167,
        "alt_km": 855.6148332191642,
        "timestamp": "2025-12-27T07:26:25.497366+00:00",
        "meta_object_name": "FENGYUN 1C DEB",
        "meta_object_id": "1999-025AAN",
        "meta_epoch": "2025-12-25T15:51:00.966240",
        "meta_mean_motion": 14.18072996,
        "meta_eccentricity": 0.0117934,
        "meta_inclination": 98.444,
        "meta_ra_of_asc_node": 253.3456,
        "meta_arg_of_pericenter": 105.2893,
        "meta_mean_anomaly": 320.5171,
        "meta_ephemeris_type": 0,
        "meta_classification_type": "U",
        "meta_norad_cat_id": 30327,
        "meta_element_set_no": 999,
        "meta_rev_at_epoch": 96626,
        "meta_bstar": 0.0017977,
        "meta_mean_motion_dot": 3.91e-05,
        "meta_mean_motion_ddot": 0,
        "tle_line1": "1 30327U 99025AAN 25359.66042785  .00003910  00000+0  17977-2 0  9997",
        "tle_line2": "2 30327  98.4440 253.3456 0117934 105.2893 320.5171 14.18072996966262"
      },
      "geometry": {
        "type": "Point",
        "coordinates": [
          71.21439479844167,
          -23.485691167956524
        ]
      }
    },
    {
      "type": "Feature",
      "properties": {
        "norad_id": 30328,
        "name": "FENGYUN 1C DEB",
        "group": "fengyun-1c-debris",
        "lat": 65.33474156274673,
        "lon": -8.460302722321488,
        "alt_km": 841.5135622190692,
        "timestamp": "2025-12-27T07:26:25.497376+00:00",
        "meta_object_name": "FENGYUN 1C DEB",
        "meta_object_id": "1999-025AAP",
        "meta_epoch": "2025-12-26T14:41:21.092352",
        "meta_mean_motion": 14.12480417,
        "meta_eccentricity": 0.0006292,
        "meta_inclination": 98.6861,
        "meta_ra_of_asc_node": 10.3077,
        "meta_arg_of_pericenter": 118.026,
        "meta_mean_anomaly": 1.7674,
        "meta_ephemeris_type": 0,
        "meta_classification_type": "U",
        "meta_norad_cat_id": 30328,
        "meta_element_set_no": 999,
        "meta_rev_at_epoch": 97460,
        "meta_bstar": 0.00013428,
        "meta_mean_motion_dot": 2.05e-06,
        "meta_mean_motion_ddot": 0,
        "tle_line1": "1 30328U 99025AAP 25360.61204968  .00000205  00000+0  13428-3 0  9990",
        "tle_line2": "2 30328  98.6861  10.3077 0006292 118.0260   1.7674 14.12480417974604"
      },
      "geometry": {
        "type": "Point",
        "coordinates": [
          -8.460302722321488,
          65.33474156274673
        ]
      }
    },
    {
      "type": "Feature",
      "properties": {
        "norad_id": 30329,
        "name": "FENGYUN 1C DEB",
        "group": "fengyun-1c-debris",
        "lat": -31.43271001613287,
        "lon": 94.81947521160315,
        "alt_km": 1030.4270104352909,
        "timestamp": "2025-12-27T07:26:25.497386+00:00",
        "meta_object_name": "FENGYUN 1C DEB",
        "meta_object_id": "1999-025AAQ",
        "meta_epoch": "2025-12-26T16:51:07.128576",
        "meta_mean_motion": 13.86757809,
        "meta_eccentricity": 0.01419867,
        "meta_inclination": 99.2634,
        "meta_ra_of_asc_node": 279.9421,
        "meta_arg_of_pericenter": 358.2707,
        "meta_mean_anomaly": 61.5034,
        "meta_ephemeris_type": 0,
        "meta_classification_type": "U",
        "meta_norad_cat_id": 30329,
        "meta_element_set_no": 999,
        "meta_rev_at_epoch": 95604,
        "meta_bstar": 0.00051960185,
        "meta_mean_motion_dot": 6.11e-06,
        "meta_mean_motion_ddot": 0,
        "tle_line1": "1 30329U 99025AAQ 25360.70216584  .00000611  00000+0  51960-3 0  9992",
        "tle_line2": "2 30329  99.2634 279.9421 0141986 358.2707  61.5034 13.86757809956044"
      },
      "geometry": {
        "type": "Point",
        "coordinates": [
          94.81947521160315,
          -31.43271001613287
        ]
      }
    },
    {
      "type": "Feature",
      "properties": {
        "norad_id": 30330,
        "name": "FENGYUN 1C DEB",
        "group": "fengyun-1c-debris",
        "lat": 1.35241756974429,
        "lon": -7.374572670853547,
        "alt_km": 1069.6762108511757,
        "timestamp": "2025-12-27T07:26:25.497397+00:00",
        "meta_object_name": "FENGYUN 1C DEB",
        "meta_object_id": "1999-025AAR",
        "meta_epoch": "2025-12-26T23:00:59.141376",
        "meta_mean_motion": 13.82101097,
        "meta_eccentricity": 0.01878357,
        "meta_inclination": 98.8868,
        "meta_ra_of_asc_node": 352.506,
        "meta_arg_of_pericenter": 146.4176,
        "meta_mean_anomaly": 270.8692,
        "meta_ephemeris_type": 0,
        "meta_classification_type": "U",
        "meta_norad_cat_id": 30330,
        "meta_element_set_no": 999,
        "meta_rev_at_epoch": 94854,
        "meta_bstar": 0.0013131036,
        "meta_mean_motion_dot": 1.577e-05,
        "meta_mean_motion_ddot": 0,
        "tle_line1": "1 30330U 99025AAR 25360.95901784  .00001577  00000+0  13131-2 0  9993",
        "tle_line2": "2 30330  98.8868 352.5060 0187835 146.4176 270.8692 13.82101097948546"
      },
      "geometry": {
        "type": "Point",
        "coordinates": [
          -7.374572670853547,
          1.35241756974429
        ]
      }
    },
    {
      "type": "Feature",
      "properties": {
        "norad_id": 30331,
        "name": "FENGYUN 1C DEB",
        "group": "fengyun-1c-debris",
        "lat": -21.718322151627138,
        "lon": 39.12975248896692,
        "alt_km": 837.7913422611928,
        "timestamp": "2025-12-27T07:26:25.497430+00:00",
        "meta_object_name": "FENGYUN 1C DEB",
        "meta_object_id": "1999-025AAS",
        "meta_epoch": "2025-12-26T20:22:30.124992",
        "meta_mean_motion": 13.97849048,
        "meta_eccentricity": 0.00958455,
        "meta_inclination": 98.9552,
        "meta_ra_of_asc_node": 35.0791,
        "meta_arg_of_pericenter": 329.138,
        "meta_mean_anomaly": 209.8905,
        "meta_ephemeris_type": 0,
        "meta_classification_type": "U",
        "meta_norad_cat_id": 30331,
        "meta_element_set_no": 999,
        "meta_rev_at_epoch": 96316,
        "meta_bstar": 0.00062588343,
        "meta_mean_motion_dot": 8.77e-06,
        "meta_mean_motion_ddot": 0,
        "tle_line1": "1 30331U 99025AAS 25360.84895978  .00000877  00000+0  62588-3 0  9992",
        "tle_line2": "2 30331  98.9552  35.0791 0095845 329.1380 209.8905 13.97849048963163"
      },
      "geometry": {
        "type": "Point",
        "coordinates": [
          39.12975248896692,
          -21.718322151627138
        ]
      }
    },
    {
      "type": "Feature",
      "properties": {
        "norad_id": 30332,
        "name": "FENGYUN 1C DEB",
        "group": "fengyun-1c-debris",
        "lat": -27.298800400325547,
        "lon": -21.787942137924553,
        "alt_km": 985.4292583117467,
        "timestamp": "2025-12-27T07:26:25.497442+00:00",
        "meta_object_name": "FENGYUN 1C DEB",
        "meta_object_id": "1999-025AAT",
        "meta_epoch": "2025-12-26T16:43:30.020736",
        "meta_mean_motion": 13.7672249,
        "meta_eccentricity": 0.01782103,
        "meta_inclination": 99.7169,
        "meta_ra_of_asc_node": 332.5126,
        "meta_arg_of_pericenter": 66.8553,
        "meta_mean_anomaly": 110.298,
        "meta_ephemeris_type": 0,
        "meta_classification_type": "U",
        "meta_norad_cat_id": 30332,
        "meta_element_set_no": 999,
        "meta_rev_at_epoch": 94907,
        "meta_bstar": 0.00048133486,
        "meta_mean_motion_dot": 4.86e-06,
        "meta_mean_motion_ddot": 0,
        "tle_line1": "1 30332U 99025AAT 25360.69687524  .00000486  00000+0  48133-3 0  9998",
        "tle_line2": "2 30332  99.7169 332.5126 0178210  66.8553 110.2980 13.76722490949079"
      },
      "geometry": {
        "type": "Point",
        "coordinates": [
          -21.787942137924553,
          -27.298800400325547
        ]
      }
    }
  ]
}